{
  "norad_id": 66249,
  "name": "STARLINK-35304",
  "history": [
    {
      "epoch": "2026-03-28T17:31:19.756128Z",
      "apogee_km": 475.8744591660279,
      "perigee_km": 474.4766575366275,
      "latitude_deg": 6.558194928896002e-05,
      "longitude_deg": 106.33418649018573,
      "height_km": 475.7501886297863,
      "semi_major_axis_km": 6853.312558351327,
      "eccentricity": 0.00010198,
      "inclination_deg": 53.1582,
      "raan_deg": 195.3128,
      "arg_perigee_deg": 62.4048,
      "mean_anomaly_deg": 297.7057,
      "mean_motion_rev_day": 15.30213233
    },
    {
      "epoch": "2026-03-28T23:47:32.880192Z",
      "apogee_km": 476.4225459422096,
      "perigee_km": 473.985497874819,
      "latitude_deg": 1.2262780045199282e-05,
      "longitude_deg": 10.806150487418105,
      "height_km": 475.6215138379096,
      "semi_major_axis_km": 6853.341021908514,
      "eccentricity": 0.0001778,
      "inclination_deg": 53.1581,
      "raan_deg": 194.097,
      "arg_perigee_deg": 66.8076,
      "mean_anomaly_deg": 293.3112,
      "mean_motion_rev_day": 15.302037
    },
    {
      "epoch": "2026-03-29T23:18:20.648448Z",
      "apogee_km": 476.0709688298075,
      "perigee_km": 474.28965459414667,
      "latitude_deg": -2.0383891896813224e-05,
      "longitude_deg": 12.591136609435718,
      "height_km": 475.82187849057465,
      "semi_major_axis_km": 6853.317311711977,
      "eccentricity": 0.00012996,
      "inclination_deg": 53.1579,
      "raan_deg": 189.5467,
      "arg_perigee_deg": 73.2738,
      "mean_anomaly_deg": 286.8405,
      "mean_motion_rev_day": 15.30211641
    },
    {
      "epoch": "2026-03-30T13:24:49.586400Z",
      "apogee_km": 475.9871575749439,
      "perigee_km": 474.44707183828723,
      "latitude_deg": -1.1278466509908395e-05,
      "longitude_deg": 157.66237270869829,
      "height_km": 476.06305994733526,
      "semi_major_axis_km": 6853.354114706615,
      "eccentricity": 0.00011236,
      "inclination_deg": 53.158,
      "raan_deg": 186.8179,
      "arg_perigee_deg": 86.119,
      "mean_anomaly_deg": 273.9939,
      "mean_motion_rev_day": 15.30199315
    },
    {
      "epoch": "2026-03-30T16:32:56.183424Z",
      "apogee_km": 476.0501251855121,
      "perigee_km": 474.40353599157515,
      "latitude_deg": 1.3151469243432891e-05,
      "longitude_deg": 109.89944677640452,
      "height_km": 476.05486087187455,
      "semi_major_axis_km": 6853.363830588543,
      "eccentricity": 0.00012013,
      "inclination_deg": 53.1581,
      "raan_deg": 186.2112,
      "arg_perigee_deg": 85.1269,
      "mean_anomaly_deg": 274.9869,
      "mean_motion_rev_day": 15.30196061
    },
    {
      "epoch": "2026-03-31T12:55:37.492032Z",
      "apogee_km": 475.848631920705,
      "perigee_km": 474.78196060531536,
      "latitude_deg": 3.2847444971085104e-05,
      "longitude_deg": 159.44534284213276,
      "height_km": 475.68263768639906,
      "semi_major_axis_km": 6853.45229626301,
      "eccentricity": 7.782e-05,
      "inclination_deg": 53.1583,
      "raan_deg": 182.2661,
      "arg_perigee_deg": 3.8838,
      "mean_anomaly_deg": 356.2169,
      "mean_motion_rev_day": 15.30166433
    },
    {
      "epoch": "2026-04-01T12:26:26.001600Z",
      "apogee_km": 476.0584783123486,
      "perigee_km": 474.33555014117246,
      "latitude_deg": -3.93405560553189e-06,
      "longitude_deg": 161.22722942359025,
      "height_km": 475.8185248461868,
      "semi_major_axis_km": 6853.334014226761,
      "eccentricity": 0.0001257,
      "inclination_deg": 53.1583,
      "raan_deg": 177.7158,
      "arg_perigee_deg": 71.2788,
      "mean_anomaly_deg": 288.8349,
      "mean_motion_rev_day": 15.30206047
    },
    {
      "epoch": "2026-04-02T15:05:22.123392Z",
      "apogee_km": 476.2900573985007,
      "perigee_km": 474.05423382283607,
      "latitude_deg": 5.7929271217981356e-05,
      "longitude_deg": 115.24390338054849,
      "height_km": 475.4428180712147,
      "semi_major_axis_km": 6853.309145610668,
      "eccentricity": 0.00016312,
      "inclination_deg": 53.1598,
      "raan_deg": 172.5607,
      "arg_perigee_deg": 55.8669,
      "mean_anomaly_deg": 304.2487,
      "mean_motion_rev_day": 15.30214376
    },
    {
      "epoch": "2026-04-03T14:36:08.188704Z",
      "apogee_km": 476.1017677460768,
      "perigee_km": 474.35004818679954,
      "latitude_deg": 3.741772273592483e-05,
      "longitude_deg": 117.03341329696889,
      "height_km": 475.8464606784095,
      "semi_major_axis_km": 6853.362907966438,
      "eccentricity": 0.0001278,
      "inclination_deg": 53.1588,
      "raan_deg": 168.0078,
      "arg_perigee_deg": 71.5306,
      "mean_anomaly_deg": 288.5834,
      "mean_motion_rev_day": 15.3019637
    },
    {
      "epoch": "2026-04-04T15:40:58.644192Z",
      "apogee_km": 475.8972120569788,
      "perigee_km": 474.3757853402685,
      "latitude_deg": 6.909504358646831e-05,
      "longitude_deg": 94.9417780343246,
      "height_km": 475.9090656687007,
      "semi_major_axis_km": 6853.273498698623,
      "eccentricity": 0.000111,
      "inclination_deg": 53.1596,
      "raan_deg": 163.1564,
      "arg_perigee_deg": 80.4884,
      "mean_anomaly_deg": 279.6243,
      "mean_motion_rev_day": 15.30226315
    },
    {
      "epoch": "2026-04-05T10:29:38.393088Z",
      "apogee_km": 476.4173996141344,
      "perigee_km": 474.12986821274717,
      "latitude_deg": -4.1401627780279345e-05,
      "longitude_deg": 168.35933217771512,
      "height_km": 476.0965179638426,
      "semi_major_axis_km": 6853.4106339134405,
      "eccentricity": 0.00016689,
      "inclination_deg": 53.159,
      "raan_deg": 159.5122,
      "arg_perigee_deg": 86.2638,
      "mean_anomaly_deg": 273.8553,
      "mean_motion_rev_day": 15.30180386
    },
    {
      "epoch": "2026-04-07T20:29:35.681280Z",
      "apogee_km": 476.0794697156889,
      "perigee_km": 474.35516576934606,
      "latitude_deg": 1.8119054105767366e-05,
      "longitude_deg": 4.7643253077134355,
      "height_km": 475.9704407886084,
      "semi_major_axis_km": 6853.354317742517,
      "eccentricity": 0.0001258,
      "inclination_deg": 53.159,
      "raan_deg": 148.2878,
      "arg_perigee_deg": 80.3255,
      "mean_anomaly_deg": 279.7888,
      "mean_motion_rev_day": 15.30199247
    },
    {
      "epoch": "2026-04-08T12:10:07.602816Z",
      "apogee_km": 475.9316825277865,
      "perigee_km": 474.49549437846963,
      "latitude_deg": 6.794632310517294e-05,
      "longitude_deg": 125.95458274555163,
      "height_km": 476.04126046212264,
      "semi_major_axis_km": 6853.350588453128,
      "eccentricity": 0.00010478,
      "inclination_deg": 53.1572,
      "raan_deg": 145.2548,
      "arg_perigee_deg": 84.3737,
      "mean_anomaly_deg": 275.7384,
      "mean_motion_rev_day": 15.30200496
    },
    {
      "epoch": "2026-04-09T10:06:52.219872Z",
      "apogee_km": 475.82615119670027,
      "perigee_km": 474.5743206171901,
      "latitude_deg": -1.0052612293512206e-05,
      "longitude_deg": 151.61983849850188,
      "height_km": 476.05857313055355,
      "semi_major_axis_km": 6853.337235906944,
      "eccentricity": 9.133e-05,
      "inclination_deg": 53.1577,
      "raan_deg": 141.0073,
      "arg_perigee_deg": 86.338,
      "mean_anomaly_deg": 273.7725,
      "mean_motion_rev_day": 15.30204968
    },
    {
      "epoch": "2026-04-10T09:37:40.289664Z",
      "apogee_km": 476.15734681138383,
      "perigee_km": 474.14248045877594,
      "latitude_deg": -2.9280744518397035e-05,
      "longitude_deg": 153.40097164910273,
      "height_km": 475.74627054296866,
      "semi_major_axis_km": 6853.28691363508,
      "eccentricity": 0.000147,
      "inclination_deg": 53.1583,
      "raan_deg": 136.4544,
      "arg_perigee_deg": 72.5936,
      "mean_anomaly_deg": 287.5225,
      "mean_motion_rev_day": 15.30221822
    },
    {
      "epoch": "2026-04-11T18:32:47.753952Z",
      "apogee_km": 475.96720404681764,
      "perigee_km": 474.5238816832898,
      "latitude_deg": 3.5313426802190743e-06,
      "longitude_deg": 11.897667649252057,
      "height_km": 475.8803257626808,
      "semi_major_axis_km": 6853.382542865053,
      "eccentricity": 0.0001053,
      "inclination_deg": 53.1578,
      "raan_deg": 130.0841,
      "arg_perigee_deg": 68.5889,
      "mean_anomaly_deg": 291.5224,
      "mean_motion_rev_day": 15.30189794
    },
    {
      "epoch": "2026-04-12T18:03:35.746848Z",
      "apogee_km": 475.8410372455164,
      "perigee_km": 474.57563556260175,
      "latitude_deg": 3.0605715604640515e-05,
      "longitude_deg": 13.681658479729785,
      "height_km": 475.9615651303069,
      "semi_major_axis_km": 6853.345336404059,
      "eccentricity": 9.232e-05,
      "inclination_deg": 53.1571,
      "raan_deg": 125.5337,
      "arg_perigee_deg": 76.7483,
      "mean_anomaly_deg": 283.3621,
      "mean_motion_rev_day": 15.30202255
    },
    {
      "epoch": "2026-04-14T10:48:58.343328Z",
      "apogee_km": 475.6109034153451,
      "perigee_km": 474.7731524749688,
      "latitude_deg": 2.650622877391947e-05,
      "longitude_deg": 112.7749037551749,
      "height_km": 475.99039425823815,
      "semi_major_axis_km": 6853.329027945157,
      "eccentricity": 6.112e-05,
      "inclination_deg": 53.1582,
      "raan_deg": 117.6449,
      "arg_perigee_deg": 76.13,
      "mean_anomaly_deg": 283.9769,
      "mean_motion_rev_day": 15.30207717
    },
    {
      "epoch": "2026-04-15T07:11:39.884352Z",
      "apogee_km": 475.88219050513726,
      "perigee_km": 474.53208171032384,
      "latitude_deg": 5.7213494640182345e-05,
      "longitude_deg": 162.31983728785283,
      "height_km": 475.97140813814235,
      "semi_major_axis_km": 6853.34413610773,
      "eccentricity": 9.85e-05,
      "inclination_deg": 53.1582,
      "raan_deg": 113.6998,
      "arg_perigee_deg": 78.5492,
      "mean_anomaly_deg": 281.562,
      "mean_motion_rev_day": 15.30202657
    }
  ]
}